STARLINK-1035
1 14740C 19074AD  21326.16995701  .00004653  00000-0  31165-3 0  3263
2 14740  53.0553  47.9774 0001231  87.9556 131.5337 15.06403816    15
